<?xml version="1.0" encoding="UTF-8"?>
<kml xmlns="http://www.opengis.net/kml/2.2">
  <Document>
    <name><![CDATA[Directions from 1. Persiapan Titik Kumpul  to Masjid Atta'Awun, Jalan Raya Puncak - Gadog, South Tugu, Bogor Regency, West Java]]></name>
    <Style id="icon-1899-DB4436-nodesc-normal">
      <IconStyle>
        <color>ff3644db</color>
        <scale>1</scale>
        <Icon>
          <href>https://www.gstatic.com/mapspro/images/stock/503-wht-blank_maps.png</href>
        </Icon>
        <hotSpot x="32" xunits="pixels" y="64" yunits="insetPixels"/>
      </IconStyle>
      <LabelStyle>
        <scale>0</scale>
      </LabelStyle>
      <BalloonStyle>
        <text><![CDATA[<h3>$[name]</h3>]]></text>
      </BalloonStyle>
    </Style>
    <Style id="icon-1899-DB4436-nodesc-highlight">
      <IconStyle>
        <color>ff3644db</color>
        <scale>1</scale>
        <Icon>
          <href>https://www.gstatic.com/mapspro/images/stock/503-wht-blank_maps.png</href>
        </Icon>
        <hotSpot x="32" xunits="pixels" y="64" yunits="insetPixels"/>
      </IconStyle>
      <LabelStyle>
        <scale>1</scale>
      </LabelStyle>
      <BalloonStyle>
        <text><![CDATA[<h3>$[name]</h3>]]></text>
      </BalloonStyle>
    </Style>
    <StyleMap id="icon-1899-DB4436-nodesc">
      <Pair>
        <key>normal</key>
        <styleUrl>#icon-1899-DB4436-nodesc-normal</styleUrl>
      </Pair>
      <Pair>
        <key>highlight</key>
        <styleUrl>#icon-1899-DB4436-nodesc-highlight</styleUrl>
      </Pair>
    </StyleMap>
    <Style id="line-1267FF-5000-nodesc-normal">
      <LineStyle>
        <color>ffff6712</color>
        <width>5</width>
      </LineStyle>
      <BalloonStyle>
        <text><![CDATA[<h3>$[name]</h3>]]></text>
      </BalloonStyle>
    </Style>
    <Style id="line-1267FF-5000-nodesc-highlight">
      <LineStyle>
        <color>ffff6712</color>
        <width>7.5</width>
      </LineStyle>
      <BalloonStyle>
        <text><![CDATA[<h3>$[name]</h3>]]></text>
      </BalloonStyle>
    </Style>
    <StyleMap id="line-1267FF-5000-nodesc">
      <Pair>
        <key>normal</key>
        <styleUrl>#line-1267FF-5000-nodesc-normal</styleUrl>
      </Pair>
      <Pair>
        <key>highlight</key>
        <styleUrl>#line-1267FF-5000-nodesc-highlight</styleUrl>
      </Pair>
    </StyleMap>
    <Placemark>
      <name><![CDATA[Directions from 1. Persiapan Titik Kumpul  to Masjid Atta'Awun, Jalan Raya Puncak - Gadog, South Tugu, Bogor Regency, West Java]]></name>
      <styleUrl>#line-1267FF-5000-nodesc</styleUrl>
      <LineString>
        <tessellate>1</tessellate>
        <coordinates>
          106.80008,-6.23561,0
          106.80008,-6.2356,0
          106.80011,-6.23558,0
          106.80023,-6.23544,0
          106.80036,-6.23553,0
          106.80042,-6.23556,0
          106.80044,-6.23558,0
          106.80045,-6.2356,0
          106.80047,-6.23569,0
          106.80049,-6.23592,0
          106.80051,-6.23595,0
          106.80054,-6.23597,0
          106.80057,-6.23598,0
          106.80119,-6.23599,0
          106.80122,-6.23598,0
          106.8013,-6.23598,0
          106.80144,-6.23596,0
          106.80195,-6.23762,0
          106.80197,-6.23776,0
          106.80206,-6.23774,0
          106.80217,-6.23819,0
          106.80215,-6.23826,0
          106.80219,-6.23862,0
          106.80209,-6.23867,0
          106.80206,-6.2387,0
          106.80204,-6.23874,0
          106.80203,-6.23878,0
          106.80202,-6.23902,0
          106.80197,-6.23921,0
          106.80194,-6.23928,0
          106.8019,-6.23934,0
          106.80177,-6.2395,0
          106.80174,-6.23957,0
          106.80174,-6.23963,0
          106.80143,-6.23963,0
          106.80143,-6.23971,0
          106.8009,-6.23971,0
          106.8009,-6.23991,0
          106.80091,-6.23998,0
          106.80152,-6.24001,0
          106.80151,-6.24009,0
          106.80193,-6.24007,0
          106.80201,-6.24004,0
          106.80202,-6.24002,0
          106.80205,-6.24002,0
          106.8021,-6.24006,0
          106.80214,-6.24011,0
          106.80222,-6.24019,0
          106.80224,-6.24023,0
          106.80228,-6.24029,0
          106.80226,-6.24177,0
          106.80227,-6.2419,0
          106.80228,-6.24193,0
          106.80228,-6.24196,0
          106.80232,-6.242,0
          106.80232,-6.24263,0
          106.8023,-6.24273,0
          106.80237,-6.24275,0
          106.80244,-6.24295,0
          106.80252,-6.24307,0
          106.80275,-6.24336,0
          106.80281,-6.24331,0
          106.80294,-6.24323,0
          106.80299,-6.24328,0
          106.80307,-6.24338,0
          106.80316,-6.24347,0
          106.80376,-6.24423,0
          106.80446,-6.24518,0
          106.80451,-6.24523,0
          106.80453,-6.24527,0
          106.80547,-6.24654,0
          106.80552,-6.24659,0
          106.80613,-6.2474,0
          106.80614,-6.24742,0
          106.80646,-6.24787,0
          106.80676,-6.2482,0
          106.80682,-6.24829,0
          106.80697,-6.24845,0
          106.80722,-6.24865,0
          106.80768,-6.24892,0
          106.80779,-6.24901,0
          106.80786,-6.24909,0
          106.80804,-6.24933,0
          106.80806,-6.24937,0
          106.80807,-6.24936,0
          106.8081,-6.24936,0
          106.80812,-6.24935,0
          106.80815,-6.24935,0
          106.80816,-6.24936,0
          106.80819,-6.24936,0
          106.8082,-6.24937,0
          106.80822,-6.24937,0
          106.80824,-6.24939,0
          106.80826,-6.2494,0
          106.80827,-6.2494,0
          106.80828,-6.24942,0
          106.8083,-6.24944,0
          106.80831,-6.24946,0
          106.80834,-6.24945,0
          106.80848,-6.24943,0
          106.80876,-6.24946,0
          106.80884,-6.24948,0
          106.80892,-6.24949,0
          106.80916,-6.24958,0
          106.80935,-6.24968,0
          106.80945,-6.24976,0
          106.80954,-6.24985,0
          106.80964,-6.24999,0
          106.80972,-6.25015,0
          106.80976,-6.25025,0
          106.80978,-6.25034,0
          106.8098,-6.25058,0
          106.80978,-6.25069,0
          106.80975,-6.25079,0
          106.80968,-6.25096,0
          106.80961,-6.25109,0
          106.80942,-6.2513,0
          106.80921,-6.2515,0
          106.80905,-6.2517,0
          106.80874,-6.25227,0
          106.80861,-6.25257,0
          106.8084,-6.25299,0
          106.80828,-6.25335,0
          106.80824,-6.25354,0
          106.80823,-6.25356,0
          106.8082,-6.254,0
          106.80821,-6.25487,0
          106.80818,-6.25506,0
          106.80816,-6.25513,0
          106.80813,-6.2553,0
          106.80805,-6.25563,0
          106.80803,-6.25597,0
          106.80804,-6.25658,0
          106.80812,-6.25792,0
          106.80813,-6.25799,0
          106.80821,-6.25954,0
          106.80822,-6.25962,0
          106.80826,-6.26049,0
          106.80827,-6.26056,0
          106.80833,-6.26179,0
          106.80834,-6.26186,0
          106.80841,-6.26308,0
          106.80842,-6.26315,0
          106.80854,-6.26544,0
          106.80859,-6.26604,0
          106.80878,-6.26973,0
          106.80885,-6.27293,0
          106.80873,-6.27479,0
          106.80858,-6.276,0
          106.80854,-6.27607,0
          106.80851,-6.2764,0
          106.80854,-6.27648,0
          106.80845,-6.27738,0
          106.80839,-6.27776,0
          106.80832,-6.27802,0
          106.80829,-6.2781,0
          106.80826,-6.27821,0
          106.80816,-6.27841,0
          106.80805,-6.27857,0
          106.80784,-6.27884,0
          106.80776,-6.27897,0
          106.80766,-6.27917,0
          106.8076,-6.27932,0
          106.80751,-6.27963,0
          106.8075,-6.2797,0
          106.80748,-6.28061,0
          106.80747,-6.28067,0
          106.80745,-6.28111,0
          106.80744,-6.28119,0
          106.80725,-6.28535,0
          106.80715,-6.28676,0
          106.80714,-6.28721,0
          106.80711,-6.28762,0
          106.80709,-6.28776,0
          106.807,-6.28817,0
          106.80687,-6.28858,0
          106.80685,-6.28861,0
          106.80667,-6.289,0
          106.80664,-6.28915,0
          106.80649,-6.28953,0
          106.80627,-6.28997,0
          106.80619,-6.29032,0
          106.80613,-6.29052,0
          106.80612,-6.29059,0
          106.80612,-6.2907,0
          106.80614,-6.29082,0
          106.8062,-6.29096,0
          106.80639,-6.29121,0
          106.80659,-6.29154,0
          106.80666,-6.29163,0
          106.80684,-6.29179,0
          106.80686,-6.2918,0
          106.8069,-6.29183,0
          106.80695,-6.29185,0
          106.80706,-6.29187,0
          106.8071,-6.29187,0
          106.80762,-6.29193,0
          106.80775,-6.29197,0
          106.809,-6.29196,0
          106.80903,-6.29195,0
          106.8102,-6.29192,0
          106.81167,-6.29184,0
          106.81191,-6.29184,0
          106.81203,-6.29183,0
          106.81276,-6.29182,0
          106.81281,-6.29181,0
          106.81319,-6.29182,0
          106.81336,-6.29181,0
          106.81387,-6.29183,0
          106.81429,-6.29188,0
          106.81439,-6.2919,0
          106.8145,-6.29195,0
          106.81464,-6.29194,0
          106.81482,-6.29194,0
          106.81512,-6.29192,0
          106.81541,-6.29192,0
          106.81606,-6.29197,0
          106.8163,-6.29202,0
          106.8163,-6.29211,0
          106.81635,-6.29211,0
          106.81641,-6.29212,0
          106.81669,-6.29213,0
          106.8165,-6.29256,0
          106.817,-6.29258,0
          106.81703,-6.29259,0
          106.81702,-6.29268,0
          106.81779,-6.29276,0
          106.81788,-6.29276,0
          106.8179,-6.29277,0
          106.81844,-6.29283,0
          106.81946,-6.29311,0
          106.82061,-6.2935,0
          106.8222,-6.29409,0
          106.82283,-6.29435,0
          106.82286,-6.29435,0
          106.82305,-6.29443,0
          106.82339,-6.29454,0
          106.82467,-6.29511,0
          106.82712,-6.29636,0
          106.82715,-6.29643,0
          106.82715,-6.29656,0
          106.82714,-6.29658,0
          106.82716,-6.29665,0
          106.82718,-6.29665,0
          106.82753,-6.29657,0
          106.82859,-6.29713,0
          106.82866,-6.29716,0
          106.82913,-6.29743,0
          106.82966,-6.29769,0
          106.83077,-6.29829,0
          106.83145,-6.29871,0
          106.83147,-6.29873,0
          106.83227,-6.29928,0
          106.83228,-6.29929,0
          106.83312,-6.29981,0
          106.83398,-6.3004,0
          106.8343,-6.3006,0
          106.83519,-6.30121,0
          106.83533,-6.30132,0
          106.83595,-6.30173,0
          106.83601,-6.30176,0
          106.83616,-6.30181,0
          106.83623,-6.30182,0
          106.83626,-6.30182,0
          106.83665,-6.30205,0
          106.83672,-6.3021,0
          106.83685,-6.30215,0
          106.83708,-6.3023,0
          106.83711,-6.30237,0
          106.83716,-6.30254,0
          106.83723,-6.30294,0
          106.83733,-6.30313,0
          106.83752,-6.30362,0
          106.83755,-6.30367,0
          106.83758,-6.30389,0
          106.83761,-6.304,0
          106.83783,-6.30452,0
          106.83791,-6.30479,0
          106.83792,-6.30487,0
          106.83796,-6.30486,0
          106.83803,-6.30486,0
          106.83805,-6.30494,0
          106.83814,-6.30513,0
          106.83821,-6.30511,0
          106.83827,-6.30523,0
          106.83827,-6.30525,0
          106.83828,-6.30527,0
          106.83828,-6.30531,0
          106.83829,-6.30532,0
          106.83829,-6.30536,0
          106.83828,-6.30538,0
          106.83826,-6.3055,0
          106.83817,-6.3057,0
          106.83809,-6.30593,0
          106.83799,-6.30642,0
          106.83806,-6.30643,0
          106.83863,-6.30657,0
          106.8389,-6.30665,0
          106.83888,-6.30679,0
          106.83888,-6.30686,0
          106.8389,-6.30696,0
          106.83886,-6.30715,0
          106.83883,-6.30722,0
          106.83877,-6.30743,0
          106.83874,-6.30741,0
          106.83877,-6.30727,0
          106.83895,-6.3073,0
          106.83897,-6.3073,0
          106.83898,-6.30726,0
          106.83916,-6.30729,0
          106.83915,-6.30734,0
          106.83919,-6.30734,0
          106.83924,-6.30736,0
          106.83931,-6.30737,0
          106.83931,-6.3074,0
          106.83922,-6.30785,0
          106.83926,-6.30786,0
          106.83932,-6.30778,0
          106.8394,-6.30779,0
          106.83971,-6.30778,0
          106.83986,-6.30784,0
          106.83987,-6.30785,0
          106.84023,-6.30789,0
          106.84028,-6.30785,0
          106.84037,-6.3077,0
          106.84043,-6.30727,0
          106.84045,-6.30725,0
          106.84052,-6.30665,0
          106.84045,-6.30725,0
          106.84043,-6.30727,0
          106.84037,-6.3077,0
          106.84028,-6.30785,0
          106.84023,-6.30789,0
          106.83987,-6.30785,0
          106.83986,-6.30784,0
          106.83971,-6.30778,0
          106.8394,-6.30779,0
          106.83932,-6.30778,0
          106.83926,-6.30786,0
          106.83915,-6.30784,0
          106.83914,-6.30787,0
          106.83913,-6.30797,0
          106.83862,-6.31093,0
          106.83862,-6.311,0
          106.83835,-6.31265,0
          106.8382,-6.31343,0
          106.8382,-6.31347,0
          106.83806,-6.31419,0
          106.83803,-6.31453,0
          106.83792,-6.31532,0
          106.8375,-6.31783,0
          106.8374,-6.31833,0
          106.83729,-6.31908,0
          106.83718,-6.31966,0
          106.83704,-6.32023,0
          106.83697,-6.32045,0
          106.83692,-6.32056,0
          106.83682,-6.32092,0
          106.8368,-6.32096,0
          106.8367,-6.32123,0
          106.83648,-6.32172,0
          106.83644,-6.32178,0
          106.83609,-6.32245,0
          106.8356,-6.32321,0
          106.83554,-6.32328,0
          106.83476,-6.32441,0
          106.83446,-6.32488,0
          106.83431,-6.32518,0
          106.83419,-6.32547,0
          106.83415,-6.32564,0
          106.83409,-6.3258,0
          106.83405,-6.32586,0
          106.83395,-6.32631,0
          106.8339,-6.32665,0
          106.83386,-6.32707,0
          106.83385,-6.32712,0
          106.83384,-6.3274,0
          106.83386,-6.32758,0
          106.83394,-6.32793,0
          106.83394,-6.32794,0
          106.83405,-6.32831,0
          106.83423,-6.32877,0
          106.83452,-6.32926,0
          106.83518,-6.33028,0
          106.83527,-6.33045,0
          106.83538,-6.33071,0
          106.83568,-6.33167,0
          106.83572,-6.33188,0
          106.83572,-6.33221,0
          106.83571,-6.3323,0
          106.83572,-6.33285,0
          106.83571,-6.33292,0
          106.83569,-6.33416,0
          106.83566,-6.33453,0
          106.83567,-6.33486,0
          106.8356,-6.33488,0
          106.8356,-6.33492,0
          106.83556,-6.33513,0
          106.83556,-6.33526,0
          106.83555,-6.33531,0
          106.83558,-6.33555,0
          106.83561,-6.33568,0
          106.83561,-6.33571,0
          106.83573,-6.33632,0
          106.83577,-6.33678,0
          106.83576,-6.33715,0
          106.83579,-6.33761,0
          106.83579,-6.33792,0
          106.83578,-6.33793,0
          106.83578,-6.33862,0
          106.83577,-6.33879,0
          106.8357,-6.33917,0
          106.83569,-6.33919,0
          106.83576,-6.33922,0
          106.83563,-6.33976,0
          106.83563,-6.33978,0
          106.83558,-6.33999,0
          106.83553,-6.34009,0
          106.83544,-6.34038,0
          106.83518,-6.34099,0
          106.83506,-6.34122,0
          106.83479,-6.34187,0
          106.83469,-6.34225,0
          106.83465,-6.34235,0
          106.83463,-6.34242,0
          106.83448,-6.34275,0
          106.83366,-6.34415,0
          106.8336,-6.34427,0
          106.83352,-6.34439,0
          106.83351,-6.34461,0
          106.83334,-6.34624,0
          106.83328,-6.3472,0
          106.83314,-6.34808,0
          106.83299,-6.34881,0
          106.83261,-6.35126,0
          106.83249,-6.35235,0
          106.83242,-6.3528,0
          106.83237,-6.35287,0
          106.83235,-6.35298,0
          106.83239,-6.35307,0
          106.83233,-6.35349,0
          106.83233,-6.35352,0
          106.83234,-6.35357,0
          106.83234,-6.35362,0
          106.83225,-6.35439,0
          106.83225,-6.35449,0
          106.83226,-6.35458,0
          106.83231,-6.35465,0
          106.83241,-6.35475,0
          106.83265,-6.3549,0
          106.83266,-6.3549,0
          106.83271,-6.35493,0
          106.83276,-6.35497,0
          106.83284,-6.35502,0
          106.83285,-6.35502,0
          106.83295,-6.35508,0
          106.83303,-6.35511,0
          106.83323,-6.35515,0
          106.83397,-6.35513,0
          106.8345,-6.35508,0
          106.83479,-6.35507,0
          106.83481,-6.35516,0
          106.83475,-6.35518,0
          106.83478,-6.3553,0
          106.83467,-6.35532,0
          106.8346,-6.35534,0
          106.83424,-6.35553,0
          106.83394,-6.35574,0
          106.83369,-6.35603,0
          106.8336,-6.35617,0
          106.8336,-6.35618,0
          106.8335,-6.35633,0
          106.83332,-6.35664,0
          106.8333,-6.35669,0
          106.83329,-6.35673,0
          106.83324,-6.35686,0
          106.83289,-6.35747,0
          106.83278,-6.3577,0
          106.83277,-6.35776,0
          106.83274,-6.35784,0
          106.83275,-6.35818,0
          106.83268,-6.35819,0
          106.83269,-6.35828,0
          106.83281,-6.35877,0
          106.83329,-6.36041,0
          106.8333,-6.36043,0
          106.83353,-6.36127,0
          106.83357,-6.3615,0
          106.83357,-6.36163,0
          106.83366,-6.36262,0
          106.83368,-6.36271,0
          106.83402,-6.36569,0
          106.83411,-6.36691,0
          106.83416,-6.368,0
          106.83415,-6.36842,0
          106.83414,-6.36846,0
          106.83413,-6.36854,0
          106.83412,-6.36856,0
          106.8338,-6.36974,0
          106.83362,-6.37032,0
          106.83332,-6.37117,0
          106.83298,-6.37257,0
          106.83298,-6.37258,0
          106.83288,-6.37296,0
          106.83272,-6.37346,0
          106.83249,-6.37428,0
          106.83234,-6.3751,0
          106.83234,-6.37515,0
          106.83226,-6.37573,0
          106.83224,-6.37582,0
          106.83223,-6.37592,0
          106.83215,-6.37627,0
          106.83196,-6.37694,0
          106.83193,-6.37702,0
          106.83178,-6.37765,0
          106.83125,-6.37911,0
          106.83053,-6.38093,0
          106.83047,-6.38111,0
          106.82997,-6.38237,0
          106.82995,-6.38245,0
          106.8293,-6.38415,0
          106.82924,-6.38428,0
          106.82924,-6.3843,0
          106.82913,-6.38454,0
          106.82912,-6.38459,0
          106.82894,-6.38509,0
          106.82867,-6.38576,0
          106.82847,-6.38612,0
          106.82841,-6.38621,0
          106.82808,-6.38663,0
          106.82687,-6.38802,0
          106.8268,-6.38809,0
          106.82666,-6.38826,0
          106.82602,-6.3893,0
          106.82599,-6.38939,0
          106.82576,-6.38986,0
          106.82572,-6.38998,0
          106.82568,-6.39007,0
          106.82568,-6.39011,0
          106.82566,-6.39018,0
          106.82501,-6.39134,0
          106.82499,-6.39139,0
          106.82498,-6.39143,0
          106.82494,-6.39148,0
          106.82443,-6.39243,0
          106.82422,-6.39278,0
          106.82408,-6.39309,0
          106.82368,-6.39381,0
          106.82368,-6.39383,0
          106.82367,-6.39384,0
          106.82357,-6.39401,0
          106.82342,-6.39421,0
          106.82342,-6.39422,0
          106.82317,-6.39451,0
          106.82254,-6.39514,0
          106.82192,-6.39572,0
          106.82168,-6.39598,0
          106.82154,-6.39622,0
          106.82055,-6.39813,0
          106.82044,-6.39831,0
          106.82024,-6.3986,0
          106.82003,-6.39887,0
          106.81987,-6.3991,0
          106.81983,-6.39917,0
          106.81979,-6.39921,0
          106.81969,-6.39934,0
          106.81928,-6.39976,0
          106.81925,-6.39978,0
          106.81911,-6.39992,0
          106.819,-6.40005,0
          106.81889,-6.40032,0
          106.81881,-6.40067,0
          106.81873,-6.40127,0
          106.81874,-6.40158,0
          106.81898,-6.40263,0
          106.81899,-6.4027,0
          106.81899,-6.40274,0
          106.81904,-6.40307,0
          106.81907,-6.4032,0
          106.81915,-6.40382,0
          106.81915,-6.40405,0
          106.81916,-6.40412,0
          106.81916,-6.40433,0
          106.81903,-6.40532,0
          106.81894,-6.4057,0
          106.8189,-6.40593,0
          106.81884,-6.40615,0
          106.81872,-6.40644,0
          106.81831,-6.40732,0
          106.81817,-6.40759,0
          106.81804,-6.40781,0
          106.81757,-6.4087,0
          106.8174,-6.40899,0
          106.81704,-6.40968,0
          106.81691,-6.40997,0
          106.81676,-6.41047,0
          106.81689,-6.41055,0
          106.81725,-6.4107,0
          106.81748,-6.41081,0
          106.81751,-6.41083,0
          106.8177,-6.41063,0
          106.81751,-6.41083,0
          106.81754,-6.41086,0
          106.81759,-6.41093,0
          106.81786,-6.41118,0
          106.818,-6.41126,0
          106.81807,-6.41129,0
          106.8189,-6.41147,0
          106.819,-6.4115,0
          106.81902,-6.4115,0
          106.81907,-6.41152,0
          106.81928,-6.41163,0
          106.81964,-6.41194,0
          106.81985,-6.41209,0
          106.81997,-6.41215,0
          106.82091,-6.41296,0
          106.821,-6.41308,0
          106.82105,-6.4132,0
          106.82106,-6.41326,0
          106.82102,-6.41352,0
          106.82072,-6.41483,0
          106.82064,-6.41529,0
          106.82063,-6.41549,0
          106.82067,-6.41559,0
          106.82081,-6.41581,0
          106.82102,-6.4161,0
          106.82118,-6.41643,0
          106.82148,-6.41744,0
          106.8215,-6.41747,0
          106.82162,-6.41758,0
          106.82177,-6.41765,0
          106.82233,-6.41785,0
          106.82232,-6.41795,0
          106.82225,-6.41826,0
          106.82225,-6.41838,0
          106.82226,-6.41841,0
          106.82236,-6.41851,0
          106.82245,-6.41858,0
          106.82262,-6.41865,0
          106.82288,-6.41879,0
          106.82294,-6.41883,0
          106.82297,-6.41887,0
          106.82316,-6.41905,0
          106.82313,-6.41915,0
          106.82308,-6.42009,0
          106.82299,-6.42074,0
          106.82301,-6.42101,0
          106.82299,-6.42121,0
          106.82293,-6.42158,0
          106.82293,-6.42161,0
          106.82287,-6.42206,0
          106.82281,-6.42239,0
          106.82273,-6.4227,0
          106.82272,-6.42278,0
          106.82269,-6.42288,0
          106.82265,-6.42309,0
          106.82265,-6.42313,0
          106.82263,-6.42322,0
          106.82258,-6.42374,0
          106.82251,-6.42416,0
          106.8225,-6.42427,0
          106.82249,-6.4243,0
          106.82249,-6.4244,0
          106.82248,-6.42446,0
          106.82249,-6.42451,0
          106.82252,-6.42487,0
          106.82252,-6.42504,0
          106.82253,-6.42509,0
          106.82253,-6.42512,0
          106.82255,-6.4252,0
          106.8226,-6.42529,0
          106.82263,-6.42532,0
          106.82268,-6.42541,0
          106.82268,-6.42543,0
          106.8227,-6.42548,0
          106.82274,-6.4257,0
          106.82274,-6.42572,0
          106.82275,-6.42575,0
          106.82275,-6.42585,0
          106.82276,-6.42589,0
          106.82277,-6.42618,0
          106.82279,-6.42627,0
          106.82283,-6.42685,0
          106.82283,-6.42698,0
          106.82284,-6.42707,0
          106.82284,-6.42716,0
          106.82285,-6.42718,0
          106.82285,-6.4273,0
          106.82286,-6.42733,0
          106.82288,-6.42746,0
          106.82289,-6.42749,0
          106.82289,-6.42752,0
          106.82295,-6.42754,0
          106.8231,-6.42761,0
          106.82366,-6.42799,0
          106.82381,-6.42811,0
          106.82405,-6.42843,0
          106.82414,-6.42849,0
          106.8242,-6.42854,0
          106.82438,-6.42862,0
          106.82443,-6.42866,0
          106.82446,-6.42872,0
          106.82449,-6.4288,0
          106.8245,-6.42886,0
          106.82452,-6.42891,0
          106.82455,-6.42903,0
          106.82464,-6.42928,0
          106.8247,-6.42935,0
          106.82483,-6.42957,0
          106.82485,-6.42969,0
          106.82484,-6.42979,0
          106.82479,-6.43001,0
          106.82475,-6.43025,0
          106.82477,-6.43029,0
          106.82484,-6.43051,0
          106.82508,-6.43096,0
          106.82529,-6.43116,0
          106.82533,-6.43119,0
          106.82535,-6.4312,0
          106.8254,-6.43125,0
          106.82542,-6.43129,0
          106.82549,-6.43149,0
          106.82559,-6.43159,0
          106.8257,-6.43167,0
          106.82572,-6.43169,0
          106.82604,-6.43179,0
          106.82611,-6.4318,0
          106.82616,-6.4318,0
          106.82676,-6.43195,0
          106.82706,-6.43206,0
          106.82709,-6.4321,0
          106.82717,-6.43217,0
          106.82725,-6.43222,0
          106.8273,-6.43222,0
          106.82734,-6.43226,0
          106.82739,-6.43229,0
          106.82742,-6.43233,0
          106.82753,-6.43255,0
          106.82743,-6.43257,0
          106.82742,-6.43258,0
          106.82729,-6.43262,0
          106.8272,-6.43266,0
          106.82713,-6.43271,0
          106.8271,-6.43274,0
          106.82706,-6.43282,0
          106.82714,-6.43297,0
          106.82736,-6.43349,0
          106.82748,-6.43384,0
          106.82763,-6.43418,0
          106.82767,-6.43424,0
          106.82781,-6.43439,0
          106.82784,-6.43445,0
          106.82786,-6.43489,0
          106.82787,-6.4349,0
          106.82789,-6.4349,0
          106.8279,-6.43491,0
          106.828,-6.43491,0
          106.82806,-6.4349,0
          106.82809,-6.4349,0
          106.82811,-6.43491,0
          106.82814,-6.43491,0
          106.82826,-6.43497,0
          106.82841,-6.43513,0
          106.82852,-6.43521,0
          106.82854,-6.43524,0
          106.82863,-6.43534,0
          106.82867,-6.43541,0
          106.82869,-6.43543,0
          106.82875,-6.43546,0
          106.82878,-6.43546,0
          106.82884,-6.43547,0
          106.8293,-6.43548,0
          106.82936,-6.43549,0
          106.82941,-6.43549,0
          106.82946,-6.43551,0
          106.82947,-6.43551,0
          106.82956,-6.43555,0
          106.82971,-6.43564,0
          106.82994,-6.43582,0
          106.83006,-6.43595,0
          106.83038,-6.43624,0
          106.83073,-6.43674,0
          106.83079,-6.4368,0
          106.83084,-6.43684,0
          106.83112,-6.43702,0
          106.83124,-6.43705,0
          106.83126,-6.4371,0
          106.83128,-6.4374,0
          106.83124,-6.43787,0
          106.83125,-6.43788,0
          106.83124,-6.43796,0
          106.83126,-6.43804,0
          106.83126,-6.43806,0
          106.83128,-6.43819,0
          106.83131,-6.4383,0
          106.83134,-6.43836,0
          106.83135,-6.4384,0
          106.8314,-6.43847,0
          106.83143,-6.4385,0
          106.83155,-6.43859,0
          106.83159,-6.4386,0
          106.8316,-6.43861,0
          106.83169,-6.43864,0
          106.83174,-6.43867,0
          106.83191,-6.4388,0
          106.83224,-6.43911,0
          106.8323,-6.43913,0
          106.83236,-6.43914,0
          106.83247,-6.43917,0
          106.83254,-6.43918,0
          106.83269,-6.43925,0
          106.83277,-6.4393,0
          106.83293,-6.43947,0
          106.83305,-6.43956,0
          106.83309,-6.43957,0
          106.83331,-6.4397,0
          106.83338,-6.43978,0
          106.83352,-6.43997,0
          106.83354,-6.43999,0
          106.83357,-6.44001,0
          106.83363,-6.44002,0
          106.83373,-6.44002,0
          106.8347,-6.43994,0
          106.83474,-6.44023,0
          106.83477,-6.44033,0
          106.83478,-6.44039,0
          106.83481,-6.4405,0
          106.83484,-6.44058,0
          106.83496,-6.44108,0
          106.83502,-6.44128,0
          106.83503,-6.44134,0
          106.83505,-6.44138,0
          106.83518,-6.44187,0
          106.83524,-6.44199,0
          106.83525,-6.44203,0
          106.83526,-6.44205,0
          106.83528,-6.44216,0
          106.83528,-6.44222,0
          106.83522,-6.44237,0
          106.8353,-6.44266,0
          106.8353,-6.44267,0
          106.83531,-6.44268,0
          106.83533,-6.44268,0
          106.83537,-6.44269,0
          106.83541,-6.44276,0
          106.83543,-6.44283,0
          106.83545,-6.44287,0
          106.83557,-6.44323,0
          106.83575,-6.4439,0
          106.83643,-6.44603,0
          106.83654,-6.44644,0
          106.83656,-6.44649,0
          106.83657,-6.44653,0
          106.8366,-6.44657,0
          106.83662,-6.44661,0
          106.83667,-6.44668,0
          106.83689,-6.44693,0
          106.8374,-6.44742,0
          106.83759,-6.44758,0
          106.83765,-6.44764,0
          106.8385,-6.44833,0
          106.83886,-6.4487,0
          106.83908,-6.44896,0
          106.83923,-6.44917,0
          106.83925,-6.44919,0
          106.83931,-6.44928,0
          106.83942,-6.4494,0
          106.83947,-6.44947,0
          106.83952,-6.44952,0
          106.83959,-6.44964,0
          106.83973,-6.44984,0
          106.84,-6.45027,0
          106.84,-6.4503,0
          106.84002,-6.45034,0
          106.84011,-6.45076,0
          106.84011,-6.45089,0
          106.83988,-6.45173,0
          106.83951,-6.45263,0
          106.83951,-6.45275,0
          106.83962,-6.45295,0
          106.83964,-6.453,0
          106.83965,-6.4531,0
          106.83965,-6.45325,0
          106.83971,-6.45431,0
          106.8397,-6.45437,0
          106.83971,-6.4544,0
          106.83971,-6.45452,0
          106.8397,-6.45454,0
          106.83971,-6.45466,0
          106.83965,-6.4551,0
          106.83959,-6.45537,0
          106.83955,-6.45565,0
          106.83954,-6.45568,0
          106.83954,-6.45571,0
          106.83945,-6.45634,0
          106.83939,-6.45659,0
          106.83935,-6.45707,0
          106.83938,-6.45726,0
          106.83938,-6.45729,0
          106.8394,-6.45738,0
          106.83942,-6.45744,0
          106.83944,-6.45753,0
          106.83949,-6.45768,0
          106.83956,-6.45778,0
          106.83965,-6.45794,0
          106.83967,-6.45796,0
          106.83992,-6.4584,0
          106.83999,-6.45857,0
          106.84006,-6.45878,0
          106.84008,-6.45889,0
          106.84014,-6.45909,0
          106.84017,-6.45932,0
          106.84019,-6.45939,0
          106.84024,-6.46,0
          106.84025,-6.46048,0
          106.84023,-6.46068,0
          106.84023,-6.46087,0
          106.84016,-6.46142,0
          106.84016,-6.46148,0
          106.84014,-6.46166,0
          106.84013,-6.46168,0
          106.84006,-6.4621,0
          106.84005,-6.46224,0
          106.84004,-6.46227,0
          106.84,-6.46259,0
          106.84,-6.46262,0
          106.83998,-6.46271,0
          106.83995,-6.46298,0
          106.83993,-6.46306,0
          106.83992,-6.46319,0
          106.83982,-6.46358,0
          106.83979,-6.46375,0
          106.83978,-6.46386,0
          106.8397,-6.4643,0
          106.83969,-6.46442,0
          106.83962,-6.4648,0
          106.83962,-6.46483,0
          106.83955,-6.46518,0
          106.83955,-6.46525,0
          106.83949,-6.4657,0
          106.83948,-6.46627,0
          106.8395,-6.46636,0
          106.83956,-6.46682,0
          106.83956,-6.46685,0
          106.83957,-6.46691,0
          106.83958,-6.46693,0
          106.83966,-6.46744,0
          106.83969,-6.46756,0
          106.8397,-6.46763,0
          106.83975,-6.46775,0
          106.83978,-6.46779,0
          106.83981,-6.46785,0
          106.83985,-6.46788,0
          106.83991,-6.46794,0
          106.83995,-6.46797,0
          106.84023,-6.46813,0
          106.84027,-6.46814,0
          106.8405,-6.46827,0
          106.84089,-6.46844,0
          106.84117,-6.46854,0
          106.84166,-6.46864,0
          106.8418,-6.46869,0
          106.84187,-6.46874,0
          106.84191,-6.46878,0
          106.84204,-6.46896,0
          106.84213,-6.46914,0
          106.84213,-6.46915,0
          106.84221,-6.46939,0
          106.84225,-6.4696,0
          106.84229,-6.46991,0
          106.8423,-6.47046,0
          106.84234,-6.47073,0
          106.84239,-6.47091,0
          106.8425,-6.47122,0
          106.84253,-6.47128,0
          106.84257,-6.47141,0
          106.84258,-6.47143,0
          106.8426,-6.4715,0
          106.84283,-6.47202,0
          106.84324,-6.47261,0
          106.84324,-6.47262,0
          106.84326,-6.47265,0
          106.8433,-6.47277,0
          106.84338,-6.47333,0
          106.84363,-6.47471,0
          106.84368,-6.4751,0
          106.8438,-6.47546,0
          106.84388,-6.47566,0
          106.84402,-6.47587,0
          106.84404,-6.47589,0
          106.84407,-6.47595,0
          106.84412,-6.47602,0
          106.84421,-6.47623,0
          106.84429,-6.47649,0
          106.84447,-6.47698,0
          106.84456,-6.47718,0
          106.84466,-6.47753,0
          106.84469,-6.4776,0
          106.84475,-6.47771,0
          106.84483,-6.47781,0
          106.84499,-6.47796,0
          106.84494,-6.47803,0
          106.84486,-6.47821,0
          106.84452,-6.4795,0
          106.84433,-6.48009,0
          106.84432,-6.48014,0
          106.84379,-6.48166,0
          106.84375,-6.48195,0
          106.84376,-6.48207,0
          106.84376,-6.48224,0
          106.84388,-6.48374,0
          106.84383,-6.48458,0
          106.84375,-6.48522,0
          106.84374,-6.48524,0
          106.84364,-6.48601,0
          106.84343,-6.4873,0
          106.84342,-6.48743,0
          106.84342,-6.48783,0
          106.84347,-6.48815,0
          106.84363,-6.4888,0
          106.84373,-6.48907,0
          106.84374,-6.48908,0
          106.84383,-6.48932,0
          106.8448,-6.4907,0
          106.845,-6.49113,0
          106.845,-6.49114,0
          106.84518,-6.49167,0
          106.84518,-6.49168,0
          106.84524,-6.4919,0
          106.84529,-6.49235,0
          106.84529,-6.49262,0
          106.84527,-6.49291,0
          106.84508,-6.49414,0
          106.84498,-6.49456,0
          106.84404,-6.49947,0
          106.84397,-6.49977,0
          106.84377,-6.50089,0
          106.84362,-6.50156,0
          106.84359,-6.50181,0
          106.8434,-6.5028,0
          106.84334,-6.50322,0
          106.84289,-6.50561,0
          106.84263,-6.50752,0
          106.84261,-6.50775,0
          106.84261,-6.50831,0
          106.84272,-6.50988,0
          106.84262,-6.5105,0
          106.84256,-6.5107,0
          106.84235,-6.51109,0
          106.84163,-6.51199,0
          106.84102,-6.51265,0
          106.83942,-6.51457,0
          106.83927,-6.51473,0
          106.83831,-6.51557,0
          106.83781,-6.51608,0
          106.83753,-6.51642,0
          106.83636,-6.51805,0
          106.83624,-6.51824,0
          106.83623,-6.51827,0
          106.83623,-6.51832,0
          106.83628,-6.5184,0
          106.83629,-6.51844,0
          106.83657,-6.51864,0
          106.83718,-6.51914,0
          106.83722,-6.51918,0
          106.8381,-6.5199,0
          106.83814,-6.51994,0
          106.83828,-6.52004,0
          106.83851,-6.52023,0
          106.83873,-6.52004,0
          106.83851,-6.52023,0
          106.83828,-6.52004,0
          106.83818,-6.52017,0
          106.83805,-6.52005,0
          106.83785,-6.51989,0
          106.83778,-6.51982,0
          106.83688,-6.5191,0
          106.83679,-6.51922,0
          106.83669,-6.51926,0
          106.83664,-6.51932,0
          106.83652,-6.51941,0
          106.83627,-6.51953,0
          106.83625,-6.51953,0
          106.83619,-6.51955,0
          106.83612,-6.51959,0
          106.83601,-6.51964,0
          106.83548,-6.52001,0
          106.83547,-6.52002,0
          106.83546,-6.52002,0
          106.83546,-6.52001,0
          106.83545,-6.52001,0
          106.83536,-6.5199,0
          106.83531,-6.51985,0
          106.83507,-6.52008,0
          106.83491,-6.51993,0
          106.83479,-6.52011,0
          106.8346,-6.52036,0
          106.8345,-6.52055,0
          106.83444,-6.52069,0
          106.83444,-6.5207,0
          106.83373,-6.52257,0
          106.83363,-6.52289,0
          106.83338,-6.52394,0
          106.83337,-6.52401,0
          106.83325,-6.52443,0
          106.83315,-6.52468,0
          106.83303,-6.52492,0
          106.8329,-6.52513,0
          106.83263,-6.52551,0
          106.83257,-6.52556,0
          106.83182,-6.52634,0
          106.83158,-6.52661,0
          106.83113,-6.52722,0
          106.83095,-6.52749,0
          106.83061,-6.52809,0
          106.82926,-6.53118,0
          106.82768,-6.53504,0
          106.82728,-6.53612,0
          106.82697,-6.53687,0
          106.82688,-6.53717,0
          106.8268,-6.53755,0
          106.82662,-6.53915,0
          106.82662,-6.5392,0
          106.82645,-6.54054,0
          106.82634,-6.54195,0
          106.82629,-6.5423,0
          106.82623,-6.5429,0
          106.82619,-6.54373,0
          106.82612,-6.54402,0
          106.82604,-6.54423,0
          106.82598,-6.54433,0
          106.82593,-6.54439,0
          106.82585,-6.54451,0
          106.82578,-6.54458,0
          106.82551,-6.54495,0
          106.82539,-6.54514,0
          106.82545,-6.54533,0
          106.82546,-6.54562,0
          106.82547,-6.54568,0
          106.82547,-6.54573,0
          106.82551,-6.54604,0
          106.82551,-6.54608,0
          106.82555,-6.54633,0
          106.82556,-6.54635,0
          106.82558,-6.54649,0
          106.82575,-6.54708,0
          106.82575,-6.54711,0
          106.82577,-6.54722,0
          106.82584,-6.54745,0
          106.82591,-6.54762,0
          106.82596,-6.5477,0
          106.82611,-6.54784,0
          106.82656,-6.5482,0
          106.82666,-6.54827,0
          106.8269,-6.54848,0
          106.82701,-6.5486,0
          106.82724,-6.54882,0
          106.82756,-6.54907,0
          106.82775,-6.5492,0
          106.82779,-6.54924,0
          106.82789,-6.5493,0
          106.82809,-6.54947,0
          106.82823,-6.54961,0
          106.8283,-6.54966,0
          106.82833,-6.54969,0
          106.82838,-6.54972,0
          106.82848,-6.54976,0
          106.82882,-6.54984,0
          106.82884,-6.54984,0
          106.82893,-6.54988,0
          106.82916,-6.55013,0
          106.82927,-6.55028,0
          106.82932,-6.55039,0
          106.8294,-6.55064,0
          106.82954,-6.55142,0
          106.82956,-6.5516,0
          106.82993,-6.55352,0
          106.83009,-6.55417,0
          106.83018,-6.55464,0
          106.83018,-6.55473,0
          106.83017,-6.55476,0
          106.82995,-6.55515,0
          106.82989,-6.55533,0
          106.82988,-6.55539,0
          106.82994,-6.55581,0
          106.82983,-6.55638,0
          106.82983,-6.55648,0
          106.82985,-6.55655,0
          106.8299,-6.55666,0
          106.82993,-6.5567,0
          106.83,-6.55683,0
          106.83018,-6.55709,0
          106.83023,-6.55714,0
          106.83045,-6.55742,0
          106.83052,-6.55753,0
          106.83057,-6.5577,0
          106.83059,-6.5578,0
          106.83059,-6.55788,0
          106.83058,-6.55795,0
          106.8304,-6.5584,0
          106.8304,-6.55843,0
          106.83032,-6.55907,0
          106.83032,-6.55944,0
          106.83033,-6.55956,0
          106.83032,-6.55984,0
          106.83026,-6.56029,0
          106.83026,-6.56043,0
          106.83028,-6.56055,0
          106.83033,-6.56066,0
          106.83043,-6.56077,0
          106.83067,-6.56095,0
          106.83172,-6.56188,0
          106.83217,-6.56239,0
          106.83252,-6.56299,0
          106.83253,-6.563,0
          106.83271,-6.5633,0
          106.83272,-6.56331,0
          106.83279,-6.56346,0
          106.8328,-6.56347,0
          106.83295,-6.56378,0
          106.83296,-6.56378,0
          106.83296,-6.56379,0
          106.83297,-6.56382,0
          106.83301,-6.5639,0
          106.83302,-6.56396,0
          106.83303,-6.56398,0
          106.83306,-6.56412,0
          106.83306,-6.56485,0
          106.83309,-6.56507,0
          106.83314,-6.56519,0
          106.83314,-6.5652,0
          106.83315,-6.56521,0
          106.83323,-6.56534,0
          106.83323,-6.56535,0
          106.8334,-6.56562,0
          106.83343,-6.56565,0
          106.83345,-6.56566,0
          106.83392,-6.56606,0
          106.83401,-6.56616,0
          106.83401,-6.56617,0
          106.83434,-6.5666,0
          106.83435,-6.5666,0
          106.83446,-6.56681,0
          106.8345,-6.56691,0
          106.83451,-6.56691,0
          106.8346,-6.56713,0
          106.83481,-6.56753,0
          106.8349,-6.56779,0
          106.83498,-6.56837,0
          106.83504,-6.57006,0
          106.83506,-6.57016,0
          106.8351,-6.57027,0
          106.8351,-6.57033,0
          106.83511,-6.57041,0
          106.83508,-6.57059,0
          106.83508,-6.57071,0
          106.83513,-6.57093,0
          106.83513,-6.57094,0
          106.83514,-6.57097,0
          106.83516,-6.5711,0
          106.83516,-6.57112,0
          106.83518,-6.57121,0
          106.83521,-6.57128,0
          106.83527,-6.57133,0
          106.83538,-6.57145,0
          106.83539,-6.57147,0
          106.8354,-6.57152,0
          106.8354,-6.57173,0
          106.83537,-6.57194,0
          106.83537,-6.57201,0
          106.83538,-6.5721,0
          106.8356,-6.57269,0
          106.83573,-6.57313,0
          106.83577,-6.57331,0
          106.83591,-6.57434,0
          106.83591,-6.57467,0
          106.83594,-6.57499,0
          106.83605,-6.57522,0
          106.83609,-6.57528,0
          106.83612,-6.57536,0
          106.83614,-6.57544,0
          106.83615,-6.57553,0
          106.83617,-6.57561,0
          106.83621,-6.5757,0
          106.83628,-6.57581,0
          106.83643,-6.576,0
          106.83655,-6.57623,0
          106.83664,-6.57649,0
          106.83694,-6.57708,0
          106.83699,-6.5772,0
          106.83703,-6.57734,0
          106.83705,-6.57738,0
          106.83723,-6.57792,0
          106.83723,-6.57794,0
          106.83727,-6.57803,0
          106.83732,-6.57819,0
          106.83741,-6.57838,0
          106.83742,-6.57841,0
          106.83742,-6.57842,0
          106.83748,-6.57856,0
          106.83759,-6.57889,0
          106.8376,-6.57891,0
          106.83764,-6.57909,0
          106.83775,-6.57931,0
          106.83785,-6.57946,0
          106.83817,-6.57988,0
          106.83817,-6.57989,0
          106.83824,-6.57999,0
          106.83838,-6.58015,0
          106.83875,-6.58052,0
          106.83881,-6.5806,0
          106.83893,-6.58081,0
          106.83896,-6.58093,0
          106.83898,-6.58106,0
          106.83898,-6.58128,0
          106.83899,-6.5814,0
          106.83901,-6.58147,0
          106.83904,-6.58165,0
          106.83907,-6.58196,0
          106.83907,-6.58212,0
          106.83899,-6.58258,0
          106.83898,-6.58286,0
          106.83897,-6.58292,0
          106.83897,-6.58334,0
          106.83903,-6.58348,0
          106.83916,-6.58373,0
          106.83928,-6.58392,0
          106.83934,-6.58399,0
          106.83935,-6.58401,0
          106.83938,-6.58405,0
          106.83943,-6.58414,0
          106.83944,-6.58414,0
          106.83944,-6.58416,0
          106.83946,-6.58429,0
          106.83946,-6.58439,0
          106.83944,-6.58454,0
          106.8394,-6.58469,0
          106.83938,-6.58485,0
          106.8394,-6.58493,0
          106.83946,-6.58546,0
          106.83943,-6.58593,0
          106.83942,-6.58598,0
          106.83935,-6.58745,0
          106.83936,-6.58753,0
          106.83932,-6.58791,0
          106.83937,-6.58969,0
          106.83935,-6.59031,0
          106.83929,-6.59083,0
          106.83929,-6.59092,0
          106.83927,-6.591,0
          106.83913,-6.59213,0
          106.83913,-6.59359,0
          106.83914,-6.59374,0
          106.83914,-6.59443,0
          106.83912,-6.59496,0
          106.83911,-6.59502,0
          106.8391,-6.5959,0
          106.839,-6.59673,0
          106.83893,-6.59704,0
          106.83887,-6.59723,0
          106.83882,-6.59751,0
          106.83881,-6.59808,0
          106.8388,-6.59817,0
          106.8388,-6.59836,0
          106.83875,-6.59876,0
          106.83869,-6.59899,0
          106.83869,-6.59909,0
          106.83872,-6.59924,0
          106.83872,-6.59926,0
          106.83873,-6.59928,0
          106.83877,-6.59967,0
          106.83878,-6.60083,0
          106.83879,-6.60091,0
          106.83879,-6.60098,0
          106.8388,-6.601,0
          106.83889,-6.6015,0
          106.83891,-6.60172,0
          106.83891,-6.60203,0
          106.83895,-6.60263,0
          106.83909,-6.60332,0
          106.8391,-6.60364,0
          106.83908,-6.60381,0
          106.83906,-6.60389,0
          106.83903,-6.60395,0
          106.83899,-6.60406,0
          106.83892,-6.60457,0
          106.83885,-6.60471,0
          106.83872,-6.60512,0
          106.83867,-6.60558,0
          106.83856,-6.60625,0
          106.83855,-6.60626,0
          106.83855,-6.6063,0
          106.83854,-6.60634,0
          106.83853,-6.60643,0
          106.83853,-6.6065,0
          106.83852,-6.60656,0
          106.83851,-6.60659,0
          106.8385,-6.60672,0
          106.83846,-6.60684,0
          106.83842,-6.60688,0
          106.83838,-6.60694,0
          106.83825,-6.60736,0
          106.83811,-6.60801,0
          106.83812,-6.60805,0
          106.83811,-6.60818,0
          106.8379,-6.60893,0
          106.83764,-6.60953,0
          106.83737,-6.60999,0
          106.83731,-6.61014,0
          106.83731,-6.61017,0
          106.83729,-6.61027,0
          106.83731,-6.61083,0
          106.83729,-6.61088,0
          106.8373,-6.61118,0
          106.83731,-6.6112,0
          106.83729,-6.61193,0
          106.83715,-6.61289,0
          106.83709,-6.61305,0
          106.83698,-6.61316,0
          106.83686,-6.61324,0
          106.83676,-6.61335,0
          106.83673,-6.61342,0
          106.83671,-6.61371,0
          106.83665,-6.61387,0
          106.83623,-6.61479,0
          106.83533,-6.61653,0
          106.83525,-6.61665,0
          106.83486,-6.61706,0
          106.83478,-6.61718,0
          106.8348,-6.61719,0
          106.83481,-6.61719,0
          106.83483,-6.6172,0
          106.83484,-6.6172,0
          106.83488,-6.61724,0
          106.83488,-6.61725,0
          106.8349,-6.61727,0
          106.8349,-6.61728,0
          106.83491,-6.6173,0
          106.83491,-6.61739,0
          106.8349,-6.6174,0
          106.8349,-6.61741,0
          106.83489,-6.61743,0
          106.83488,-6.61744,0
          106.83487,-6.61746,0
          106.83485,-6.61747,0
          106.83482,-6.6175,0
          106.83478,-6.61751,0
          106.83476,-6.61752,0
          106.83473,-6.61752,0
          106.83471,-6.61751,0
          106.83456,-6.61767,0
          106.8342,-6.61823,0
          106.83416,-6.61827,0
          106.83414,-6.6183,0
          106.83411,-6.61833,0
          106.83433,-6.61888,0
          106.83446,-6.61904,0
          106.83458,-6.61925,0
          106.83466,-6.61945,0
          106.83473,-6.61967,0
          106.83494,-6.62017,0
          106.83505,-6.62047,0
          106.83515,-6.6207,0
          106.83528,-6.62106,0
          106.83547,-6.62151,0
          106.83555,-6.62173,0
          106.83575,-6.62244,0
          106.83591,-6.62287,0
          106.83596,-6.62297,0
          106.836,-6.62302,0
          106.83612,-6.62308,0
          106.83623,-6.62308,0
          106.83649,-6.62296,0
          106.83656,-6.62292,0
          106.83658,-6.62292,0
          106.8366,-6.62291,0
          106.83666,-6.62291,0
          106.83654,-6.62299,0
          106.83653,-6.62304,0
          106.83648,-6.62309,0
          106.83622,-6.62323,0
          106.83617,-6.62328,0
          106.83615,-6.62333,0
          106.83613,-6.62343,0
          106.83616,-6.62355,0
          106.83783,-6.62778,0
          106.83798,-6.62811,0
          106.83808,-6.62841,0
          106.83813,-6.62853,0
          106.83818,-6.6287,0
          106.8384,-6.62919,0
          106.83852,-6.62941,0
          106.83859,-6.62951,0
          106.83869,-6.62968,0
          106.83895,-6.63,0
          106.83903,-6.63008,0
          106.83906,-6.6301,0
          106.83913,-6.6301,0
          106.83926,-6.63007,0
          106.83959,-6.63069,0
          106.83964,-6.63082,0
          106.83964,-6.63085,0
          106.83963,-6.63087,0
          106.83963,-6.63089,0
          106.8396,-6.63096,0
          106.83958,-6.63108,0
          106.83958,-6.63114,0
          106.8396,-6.63119,0
          106.8396,-6.6312,0
          106.83972,-6.63144,0
          106.83978,-6.63152,0
          106.83985,-6.63158,0
          106.84007,-6.6317,0
          106.84014,-6.63175,0
          106.8403,-6.6319,0
          106.8404,-6.63194,0
          106.84049,-6.63212,0
          106.84051,-6.63218,0
          106.84079,-6.63273,0
          106.84085,-6.63279,0
          106.84086,-6.63282,0
          106.84086,-6.63283,0
          106.84083,-6.6329,0
          106.84079,-6.63292,0
          106.84075,-6.63295,0
          106.84072,-6.63299,0
          106.84071,-6.63301,0
          106.8407,-6.63302,0
          106.8407,-6.63305,0
          106.84073,-6.63311,0
          106.84131,-6.63399,0
          106.84132,-6.63399,0
          106.84136,-6.63407,0
          106.84137,-6.63407,0
          106.84144,-6.63417,0
          106.84145,-6.63421,0
          106.84147,-6.63426,0
          106.84146,-6.63431,0
          106.84165,-6.63438,0
          106.84202,-6.63446,0
          106.84225,-6.63448,0
          106.84236,-6.6345,0
          106.84254,-6.63456,0
          106.84266,-6.63461,0
          106.8427,-6.63462,0
          106.84305,-6.63478,0
          106.84312,-6.6348,0
          106.84316,-6.6348,0
          106.84323,-6.63477,0
          106.84339,-6.6346,0
          106.84343,-6.63458,0
          106.84344,-6.63458,0
          106.84346,-6.63457,0
          106.84352,-6.63459,0
          106.84366,-6.63467,0
          106.84369,-6.63468,0
          106.84375,-6.63471,0
          106.84378,-6.63471,0
          106.8438,-6.63472,0
          106.84393,-6.63472,0
          106.84399,-6.63474,0
          106.844,-6.63474,0
          106.84405,-6.63476,0
          106.84408,-6.63478,0
          106.8441,-6.63478,0
          106.84414,-6.6348,0
          106.84426,-6.63483,0
          106.84433,-6.63483,0
          106.84468,-6.63487,0
          106.84489,-6.63487,0
          106.8449,-6.63486,0
          106.84504,-6.63486,0
          106.84525,-6.63483,0
          106.84527,-6.63482,0
          106.84533,-6.63481,0
          106.84542,-6.63481,0
          106.8457,-6.63486,0
          106.84593,-6.63493,0
          106.84601,-6.63493,0
          106.84605,-6.63496,0
          106.84611,-6.63499,0
          106.84618,-6.63504,0
          106.84632,-6.63509,0
          106.84637,-6.6351,0
          106.84647,-6.6351,0
          106.84663,-6.63506,0
          106.84676,-6.63506,0
          106.84682,-6.63507,0
          106.847,-6.63508,0
          106.84723,-6.63513,0
          106.84729,-6.63515,0
          106.84737,-6.6352,0
          106.84764,-6.63551,0
          106.84779,-6.63559,0
          106.84785,-6.63561,0
          106.8479,-6.63562,0
          106.84794,-6.63562,0
          106.84809,-6.63559,0
          106.84824,-6.63552,0
          106.84838,-6.63547,0
          106.84849,-6.63545,0
          106.84856,-6.63545,0
          106.84866,-6.63547,0
          106.84877,-6.63547,0
          106.84882,-6.63546,0
          106.84886,-6.63547,0
          106.84892,-6.63547,0
          106.84901,-6.63549,0
          106.8491,-6.63553,0
          106.84916,-6.63554,0
          106.84927,-6.63558,0
          106.8497,-6.63566,0
          106.84976,-6.63568,0
          106.84981,-6.63569,0
          106.84985,-6.63572,0
          106.84986,-6.63574,0
          106.84988,-6.63576,0
          106.84992,-6.63588,0
          106.84994,-6.63591,0
          106.85041,-6.63642,0
          106.85052,-6.63651,0
          106.85063,-6.63656,0
          106.85082,-6.63663,0
          106.85087,-6.63667,0
          106.8509,-6.63671,0
          106.85095,-6.63682,0
          106.85098,-6.63687,0
          106.85102,-6.63698,0
          106.85101,-6.63718,0
          106.85098,-6.63737,0
          106.85098,-6.63741,0
          106.85099,-6.63744,0
          106.85099,-6.63747,0
          106.85101,-6.63751,0
          106.85109,-6.63762,0
          106.85127,-6.63782,0
          106.85131,-6.63788,0
          106.85145,-6.63814,0
          106.85148,-6.63826,0
          106.85147,-6.63844,0
          106.85148,-6.63849,0
          106.85148,-6.63855,0
          106.85152,-6.63867,0
          106.85154,-6.63871,0
          106.85158,-6.63883,0
          106.85158,-6.63884,0
          106.85159,-6.63885,0
          106.8516,-6.63888,0
          106.85165,-6.63895,0
          106.85168,-6.63898,0
          106.85168,-6.63899,0
          106.85169,-6.639,0
          106.8517,-6.63903,0
          106.85171,-6.63903,0
          106.85173,-6.63911,0
          106.85173,-6.63915,0
          106.85176,-6.63918,0
          106.85176,-6.63919,0
          106.85179,-6.63922,0
          106.85196,-6.63944,0
          106.85227,-6.63979,0
          106.85281,-6.64028,0
          106.85283,-6.64031,0
          106.85307,-6.64058,0
          106.85333,-6.64082,0
          106.85335,-6.64085,0
          106.8534,-6.64087,0
          106.85364,-6.64107,0
          106.85374,-6.64118,0
          106.85376,-6.64122,0
          106.85377,-6.64122,0
          106.85381,-6.64128,0
          106.85383,-6.6413,0
          106.85389,-6.6414,0
          106.85399,-6.64161,0
          106.8541,-6.64191,0
          106.85414,-6.64199,0
          106.8543,-6.64221,0
          106.85431,-6.64223,0
          106.85433,-6.64225,0
          106.85441,-6.64236,0
          106.85466,-6.64277,0
          106.85475,-6.64289,0
          106.85479,-6.64293,0
          106.85483,-6.64296,0
          106.85498,-6.64302,0
          106.85499,-6.64303,0
          106.85516,-6.64309,0
          106.85532,-6.64317,0
          106.85533,-6.64318,0
          106.85536,-6.64319,0
          106.85553,-6.64319,0
          106.85557,-6.6432,0
          106.85561,-6.64322,0
          106.85572,-6.64335,0
          106.85575,-6.6434,0
          106.85576,-6.6434,0
          106.85577,-6.64342,0
          106.85585,-6.64353,0
          106.85587,-6.64358,0
          106.85592,-6.6438,0
          106.85594,-6.64384,0
          106.85599,-6.64391,0
          106.85624,-6.64413,0
          106.85633,-6.64423,0
          106.85639,-6.64428,0
          106.85666,-6.64442,0
          106.8568,-6.64446,0
          106.85707,-6.64449,0
          106.85717,-6.64449,0
          106.85729,-6.64452,0
          106.85752,-6.64465,0
          106.85797,-6.64494,0
          106.85814,-6.6451,0
          106.85816,-6.64515,0
          106.85818,-6.64518,0
          106.85821,-6.64529,0
          106.85823,-6.64533,0
          106.85849,-6.64565,0
          106.85852,-6.64567,0
          106.85857,-6.64569,0
          106.8587,-6.64568,0
          106.85889,-6.64569,0
          106.85895,-6.64571,0
          106.85896,-6.64572,0
          106.85898,-6.64573,0
          106.85944,-6.64611,0
          106.85986,-6.64643,0
          106.8603,-6.64672,0
          106.86048,-6.64682,0
          106.86058,-6.64686,0
          106.86077,-6.64697,0
          106.86095,-6.64705,0
          106.86118,-6.64712,0
          106.86152,-6.64718,0
          106.8618,-6.64721,0
          106.86195,-6.64719,0
          106.86199,-6.64718,0
          106.86213,-6.6472,0
          106.86236,-6.64728,0
          106.86247,-6.64733,0
          106.86298,-6.64774,0
          106.8631,-6.6478,0
          106.86313,-6.64781,0
          106.86357,-6.6478,0
          106.86366,-6.64785,0
          106.86373,-6.64788,0
          106.86378,-6.64791,0
          106.86383,-6.64793,0
          106.86393,-6.64795,0
          106.86404,-6.648,0
          106.8641,-6.64804,0
          106.86413,-6.64807,0
          106.8642,-6.64818,0
          106.86422,-6.6482,0
          106.86424,-6.64823,0
          106.86433,-6.64832,0
          106.86462,-6.64855,0
          106.86497,-6.64886,0
          106.86518,-6.64902,0
          106.86523,-6.64905,0
          106.86526,-6.64908,0
          106.86529,-6.64909,0
          106.86532,-6.64911,0
          106.86535,-6.64914,0
          106.86536,-6.64916,0
          106.86554,-6.64937,0
          106.86569,-6.64948,0
          106.86585,-6.64955,0
          106.86593,-6.64956,0
          106.86606,-6.64954,0
          106.86612,-6.64952,0
          106.86626,-6.64952,0
          106.86629,-6.64953,0
          106.86632,-6.64955,0
          106.86637,-6.64957,0
          106.86654,-6.64969,0
          106.86683,-6.64994,0
          106.86696,-6.65003,0
          106.86693,-6.65013,0
          106.86693,-6.65031,0
          106.86695,-6.65041,0
          106.86697,-6.65047,0
          106.86697,-6.65048,0
          106.86701,-6.65064,0
          106.86717,-6.65096,0
          106.86717,-6.65097,0
          106.86718,-6.65097,0
          106.86718,-6.65098,0
          106.86724,-6.65105,0
          106.86731,-6.65111,0
          106.86746,-6.6512,0
          106.86755,-6.65129,0
          106.86759,-6.65135,0
          106.86779,-6.65174,0
          106.86802,-6.65206,0
          106.86807,-6.65211,0
          106.86825,-6.65222,0
          106.86832,-6.65224,0
          106.86853,-6.65233,0
          106.86862,-6.65235,0
          106.86876,-6.65236,0
          106.86881,-6.65233,0
          106.8689,-6.65229,0
          106.86895,-6.65228,0
          106.86907,-6.65228,0
          106.86908,-6.65229,0
          106.8691,-6.6523,0
          106.86912,-6.65238,0
          106.86924,-6.65236,0
          106.86935,-6.65236,0
          106.86945,-6.65238,0
          106.86947,-6.65238,0
          106.86951,-6.65242,0
          106.87078,-6.65272,0
          106.87143,-6.65284,0
          106.87152,-6.65287,0
          106.87258,-6.65343,0
          106.87275,-6.6535,0
          106.87364,-6.6538,0
          106.87368,-6.65382,0
          106.87429,-6.65405,0
          106.8746,-6.65415,0
          106.87467,-6.65416,0
          106.8748,-6.65416,0
          106.87484,-6.65415,0
          106.87506,-6.65412,0
          106.87575,-6.65392,0
          106.87585,-6.65388,0
          106.8761,-6.65384,0
          106.87638,-6.65389,0
          106.87688,-6.65407,0
          106.87719,-6.6542,0
          106.87722,-6.6542,0
          106.87723,-6.65421,0
          106.8773,-6.65421,0
          106.87731,-6.65498,0
          106.87728,-6.65528,0
          106.87777,-6.65526,0
          106.87784,-6.65523,0
          106.8779,-6.65522,0
          106.87798,-6.65517,0
          106.87799,-6.65516,0
          106.878,-6.65516,0
          106.87805,-6.65514,0
          106.87815,-6.65512,0
          106.87816,-6.65511,0
          106.87828,-6.65509,0
          106.87837,-6.65506,0
          106.87848,-6.65501,0
          106.87853,-6.65524,0
          106.87856,-6.65533,0
          106.87859,-6.65539,0
          106.8786,-6.65542,0
          106.87861,-6.65543,0
          106.87861,-6.65548,0
          106.87862,-6.65552,0
          106.87862,-6.65556,0
          106.87863,-6.65557,0
          106.87863,-6.65558,0
          106.87864,-6.65559,0
          106.87864,-6.6556,0
          106.87866,-6.6556,0
          106.87867,-6.65561,0
          106.8787,-6.65561,0
          106.87884,-6.65566,0
          106.87886,-6.65566,0
          106.8789,-6.65567,0
          106.87892,-6.65568,0
          106.87902,-6.65576,0
          106.87904,-6.65577,0
          106.87953,-6.65592,0
          106.87975,-6.65596,0
          106.87991,-6.65601,0
          106.87992,-6.65602,0
          106.87993,-6.65602,0
          106.87993,-6.65603,0
          106.87995,-6.65604,0
          106.87996,-6.65605,0
          106.87998,-6.65606,0
          106.88,-6.65608,0
          106.88001,-6.65608,0
          106.88002,-6.65609,0
          106.88005,-6.65609,0
          106.88005,-6.65608,0
          106.88007,-6.65608,0
          106.88007,-6.65607,0
          106.88009,-6.65606,0
          106.8801,-6.65606,0
          106.88011,-6.65605,0
          106.88013,-6.65604,0
          106.88015,-6.65604,0
          106.88017,-6.65603,0
          106.88048,-6.65621,0
          106.88066,-6.65627,0
          106.88086,-6.65625,0
          106.88097,-6.65622,0
          106.88099,-6.65621,0
          106.88104,-6.6562,0
          106.88122,-6.65614,0
          106.88124,-6.65618,0
          106.88128,-6.65621,0
          106.8814,-6.65624,0
          106.88145,-6.65624,0
          106.8815,-6.65625,0
          106.88155,-6.65624,0
          106.88159,-6.65624,0
          106.88173,-6.65621,0
          106.88173,-6.6562,0
          106.88177,-6.65619,0
          106.88186,-6.65614,0
          106.88193,-6.65609,0
          106.88197,-6.65605,0
          106.88201,-6.65602,0
          106.88206,-6.65597,0
          106.88209,-6.6559,0
          106.88208,-6.65587,0
          106.88211,-6.65586,0
          106.88317,-6.65568,0
          106.88404,-6.65566,0
          106.88424,-6.65564,0
          106.88452,-6.65591,0
          106.88456,-6.65594,0
          106.8846,-6.65595,0
          106.88463,-6.65595,0
          106.88466,-6.65596,0
          106.88474,-6.65594,0
          106.8849,-6.65579,0
          106.88504,-6.65562,0
          106.88508,-6.65559,0
          106.8851,-6.65559,0
          106.88511,-6.65558,0
          106.88516,-6.65558,0
          106.88522,-6.65564,0
          106.88523,-6.65568,0
          106.88523,-6.65571,0
          106.88522,-6.65575,0
          106.88515,-6.65585,0
          106.88493,-6.65611,0
          106.88485,-6.65618,0
          106.88474,-6.65626,0
          106.88453,-6.65638,0
          106.88423,-6.65651,0
          106.88422,-6.65651,0
          106.88402,-6.65661,0
          106.88377,-6.65678,0
          106.88376,-6.65678,0
          106.88346,-6.65691,0
          106.8833,-6.65696,0
          106.88272,-6.65703,0
          106.88263,-6.65703,0
          106.8825,-6.657,0
          106.88235,-6.65695,0
          106.88222,-6.65686,0
          106.88213,-6.65684,0
          106.88203,-6.65684,0
          106.88184,-6.65687,0
          106.88203,-6.65684,0
          106.88213,-6.65684,0
          106.88222,-6.65686,0
          106.88235,-6.65695,0
          106.8825,-6.657,0
          106.88263,-6.65703,0
          106.88272,-6.65703,0
          106.8833,-6.65696,0
          106.88346,-6.65691,0
          106.88376,-6.65678,0
          106.88377,-6.65678,0
          106.88402,-6.65661,0
          106.88422,-6.65651,0
          106.88423,-6.65651,0
          106.88453,-6.65638,0
          106.88474,-6.65626,0
          106.88485,-6.65618,0
          106.88493,-6.65611,0
          106.88515,-6.65585,0
          106.88522,-6.65575,0
          106.88523,-6.65571,0
          106.88523,-6.65568,0
          106.88522,-6.65564,0
          106.88516,-6.65558,0
          106.88511,-6.65558,0
          106.8851,-6.65559,0
          106.88508,-6.65559,0
          106.88504,-6.65562,0
          106.8849,-6.65579,0
          106.88474,-6.65594,0
          106.88466,-6.65596,0
          106.88463,-6.65595,0
          106.8846,-6.65595,0
          106.88456,-6.65594,0
          106.88452,-6.65591,0
          106.88424,-6.65564,0
          106.88444,-6.65555,0
          106.88462,-6.65543,0
          106.88484,-6.65523,0
          106.88488,-6.65517,0
          106.8849,-6.65515,0
          106.88506,-6.65489,0
          106.88512,-6.65482,0
          106.88519,-6.65476,0
          106.88525,-6.65474,0
          106.88534,-6.65472,0
          106.88578,-6.65473,0
          106.88578,-6.65474,0
          106.88592,-6.65476,0
          106.8862,-6.65483,0
          106.88625,-6.65488,0
          106.88634,-6.65494,0
          106.88642,-6.65502,0
          106.88652,-6.65509,0
          106.88654,-6.65511,0
          106.88656,-6.65512,0
          106.88663,-6.65514,0
          106.88675,-6.65516,0
          106.88713,-6.65516,0
          106.88723,-6.65515,0
          106.88731,-6.65515,0
          106.88741,-6.65513,0
          106.88745,-6.65513,0
          106.88763,-6.6551,0
          106.88816,-6.65497,0
          106.88837,-6.65495,0
          106.88861,-6.65488,0
          106.88914,-6.65468,0
          106.88936,-6.65461,0
          106.88942,-6.6546,0
          106.88952,-6.6546,0
          106.88952,-6.65459,0
          106.88958,-6.65459,0
          106.88962,-6.6546,0
          106.88967,-6.65459,0
          106.8897,-6.65459,0
          106.88977,-6.65457,0
          106.88983,-6.65456,0
          106.89002,-6.65449,0
          106.89024,-6.65445,0
          106.89045,-6.65439,0
          106.89072,-6.65435,0
          106.89092,-6.65435,0
          106.89095,-6.65434,0
          106.89097,-6.65434,0
          106.89098,-6.65433,0
          106.89104,-6.65431,0
          106.89108,-6.65428,0
          106.89112,-6.65426,0
          106.89113,-6.65425,0
          106.89114,-6.65425,0
          106.89114,-6.65424,0
          106.89115,-6.65424,0
          106.89115,-6.65423,0
          106.89116,-6.65422,0
          106.89116,-6.65421,0
          106.89117,-6.6542,0
          106.89118,-6.65418,0
          106.89119,-6.65417,0
          106.89121,-6.65412,0
          106.89121,-6.65411,0
          106.89122,-6.6541,0
          106.89122,-6.65399,0
          106.89121,-6.65395,0
          106.89121,-6.65383,0
          106.89125,-6.65372,0
          106.89133,-6.65364,0
          106.89136,-6.6536,0
          106.8914,-6.65356,0
          106.89142,-6.65352,0
          106.89145,-6.65349,0
          106.8915,-6.65338,0
          106.89164,-6.65338,0
          106.8917,-6.65337,0
          106.89173,-6.65337,0
          106.89174,-6.65336,0
          106.89176,-6.65335,0
          106.89177,-6.65334,0
          106.89178,-6.65334,0
          106.89181,-6.6533,0
          106.89181,-6.65329,0
          106.89185,-6.65321,0
          106.89186,-6.65318,0
          106.89189,-6.65314,0
          106.89189,-6.65312,0
          106.8919,-6.65311,0
          106.89191,-6.65311,0
          106.89191,-6.6531,0
          106.89192,-6.6531,0
          106.89192,-6.65309,0
          106.89194,-6.65309,0
          106.89195,-6.65308,0
          106.89197,-6.65308,0
          106.89216,-6.65302,0
          106.89225,-6.65296,0
          106.89228,-6.65291,0
          106.89231,-6.65288,0
          106.89233,-6.65283,0
          106.89236,-6.65279,0
          106.89239,-6.65273,0
          106.89239,-6.65272,0
          106.8924,-6.65271,0
          106.89242,-6.65271,0
          106.89242,-6.6527,0
          106.89246,-6.6527,0
          106.89248,-6.65271,0
          106.89249,-6.65271,0
          106.89253,-6.65273,0
          106.89254,-6.65273,0
          106.89255,-6.65274,0
          106.89259,-6.65274,0
          106.89261,-6.65275,0
          106.89266,-6.65275,0
          106.89268,-6.65274,0
          106.89271,-6.65274,0
          106.89285,-6.65271,0
          106.89286,-6.65271,0
          106.89298,-6.65268,0
          106.89323,-6.65278,0
          106.89325,-6.65278,0
          106.89326,-6.65279,0
          106.89334,-6.65279,0
          106.89335,-6.65278,0
          106.89337,-6.65278,0
          106.89338,-6.65277,0
          106.89339,-6.65277,0
          106.89341,-6.65275,0
          106.89343,-6.65274,0
          106.89344,-6.65273,0
          106.89345,-6.65273,0
          106.89346,-6.65272,0
          106.89347,-6.65272,0
          106.89348,-6.65271,0
          106.89351,-6.65271,0
          106.89357,-6.6527,0
          106.89486,-6.65269,0
          106.89503,-6.6527,0
          106.89522,-6.65268,0
          106.8954,-6.65264,0
          106.89569,-6.65261,0
          106.89595,-6.65265,0
          106.896,-6.65265,0
          106.89604,-6.65264,0
          106.89607,-6.65264,0
          106.89626,-6.65259,0
          106.89631,-6.65259,0
          106.89643,-6.65262,0
          106.8965,-6.65262,0
          106.89655,-6.65261,0
          106.89671,-6.65254,0
          106.89677,-6.65253,0
          106.897,-6.65253,0
          106.89701,-6.6525,0
          106.89702,-6.65249,0
          106.89702,-6.65248,0
          106.89703,-6.65248,0
          106.89703,-6.65247,0
          106.89705,-6.65246,0
          106.89706,-6.65245,0
          106.8971,-6.65243,0
          106.89711,-6.65242,0
          106.89715,-6.65241,0
          106.89722,-6.65238,0
          106.89724,-6.65236,0
          106.89725,-6.65236,0
          106.89725,-6.65235,0
          106.89726,-6.65234,0
          106.89727,-6.65232,0
          106.89805,-6.65231,0
          106.89806,-6.65227,0
          106.8981,-6.65219,0
          106.89812,-6.65216,0
          106.89814,-6.65214,0
          106.89836,-6.65205,0
          106.8984,-6.65204,0
          106.89843,-6.65199,0
          106.89846,-6.65197,0
          106.89848,-6.65193,0
          106.8985,-6.65185,0
          106.89853,-6.65158,0
          106.89854,-6.65155,0
          106.89855,-6.65149,0
          106.89859,-6.65138,0
          106.89867,-6.6511,0
          106.89873,-6.6508,0
          106.89873,-6.65076,0
          106.89878,-6.65039,0
          106.89884,-6.65011,0
          106.90074,-6.64998,0
          106.9008,-6.64997,0
          106.90187,-6.6499,0
          106.90223,-6.64986,0
          106.90227,-6.64985,0
          106.90289,-6.64985,0
          106.90313,-6.64993,0
          106.90318,-6.64994,0
          106.90333,-6.64999,0
          106.90361,-6.65011,0
          106.90466,-6.65051,0
          106.90526,-6.65078,0
          106.90557,-6.65089,0
          106.90598,-6.65106,0
          106.90616,-6.65111,0
          106.90812,-6.65185,0
          106.90819,-6.65187,0
          106.90825,-6.6519,0
          106.90963,-6.65245,0
          106.90985,-6.65256,0
          106.90993,-6.65264,0
          106.90994,-6.65268,0
          106.90996,-6.65272,0
          106.90999,-6.65286,0
          106.91001,-6.65325,0
          106.91,-6.65335,0
          106.91,-6.65372,0
          106.91001,-6.65384,0
          106.91007,-6.65408,0
          106.91017,-6.65432,0
          106.91036,-6.65465,0
          106.91076,-6.65511,0
          106.91101,-6.65545,0
          106.91111,-6.65556,0
          106.9119,-6.65675,0
          106.91244,-6.6575,0
          106.91292,-6.65792,0
          106.91394,-6.65873,0
          106.91399,-6.65876,0
          106.91481,-6.65941,0
          106.91483,-6.65942,0
          106.91527,-6.65981,0
          106.91543,-6.65992,0
          106.91561,-6.66007,0
          106.91593,-6.66027,0
          106.91676,-6.66091,0
          106.91729,-6.66136,0
          106.91806,-6.66192,0
          106.9182,-6.66205,0
          106.91911,-6.66271,0
          106.91934,-6.66291,0
          106.91941,-6.66296,0
          106.91947,-6.66302,0
          106.91952,-6.66306,0
          106.91972,-6.66319,0
          106.92001,-6.66341,0
          106.92084,-6.66411,0
          106.92132,-6.66462,0
          106.9214,-6.66469,0
          106.92187,-6.66521,0
          106.92228,-6.66563,0
          106.92369,-6.66694,0
          106.9245,-6.66764,0
          106.92513,-6.66822,0
          106.92522,-6.66829,0
          106.92575,-6.66876,0
          106.92598,-6.669,0
          106.92599,-6.66902,0
          106.92605,-6.66908,0
          106.92611,-6.66916,0
          106.92623,-6.66939,0
          106.92666,-6.67039,0
          106.92666,-6.6704,0
          106.92676,-6.67062,0
          106.92766,-6.67291,0
          106.92786,-6.67335,0
          106.92796,-6.67366,0
          106.92906,-6.6764,0
          106.9291,-6.67648,0
          106.92969,-6.67795,0
          106.92976,-6.67818,0
          106.92978,-6.67821,0
          106.92988,-6.67844,0
          106.92993,-6.67858,0
          106.93004,-6.67881,0
          106.93013,-6.67897,0
          106.93042,-6.67927,0
          106.93051,-6.67934,0
          106.93071,-6.67945,0
          106.93102,-6.67954,0
          106.93168,-6.67965,0
          106.93176,-6.67967,0
          106.93191,-6.67974,0
          106.93211,-6.67987,0
          106.93221,-6.67995,0
          106.9333,-6.68123,0
          106.9334,-6.68133,0
          106.93345,-6.6814,0
          106.93364,-6.68161,0
          106.93421,-6.68231,0
          106.93437,-6.68253,0
          106.9344,-6.68256,0
          106.93445,-6.68264,0
          106.93479,-6.68305,0
          106.93556,-6.68391,0
          106.93588,-6.6843,0
          106.93662,-6.68554,0
          106.93665,-6.68558,0
          106.93684,-6.68591,0
          106.93709,-6.68641,0
          106.9372,-6.68657,0
          106.93734,-6.68672,0
          106.93746,-6.68681,0
          106.93761,-6.68689,0
          106.93772,-6.68693,0
          106.93773,-6.68694,0
          106.93788,-6.68699,0
          106.9379,-6.68699,0
          106.93803,-6.68703,0
          106.93807,-6.68705,0
          106.93817,-6.68707,0
          106.93826,-6.6871,0
          106.939,-6.68727,0
          106.94003,-6.68741,0
          106.94012,-6.68741,0
          106.94018,-6.68742,0
          106.94023,-6.68742,0
          106.94161,-6.6872,0
          106.94164,-6.6872,0
          106.94354,-6.68692,0
          106.9437,-6.68687,0
          106.94471,-6.68641,0
          106.94508,-6.68619,0
          106.94619,-6.68539,0
          106.94871,-6.68368,0
          106.94879,-6.68364,0
          106.94899,-6.68358,0
          106.94913,-6.68355,0
          106.94954,-6.68356,0
          106.94981,-6.68362,0
          106.95013,-6.68367,0
          106.9503,-6.68371,0
          106.95126,-6.68403,0
          106.95136,-6.68408,0
          106.95166,-6.68416,0
          106.95466,-6.68513,0
          106.955,-6.68526,0
          106.95502,-6.68526,0
          106.95513,-6.68531,0
          106.95516,-6.68533,0
          106.95527,-6.68538,0
          106.95559,-6.68559,0
          106.95562,-6.68562,0
          106.95672,-6.68641,0
          106.95719,-6.68672,0
          106.9573,-6.68681,0
          106.95755,-6.68707,0
          106.95758,-6.68709,0
          106.95763,-6.68714,0
          106.95829,-6.68762,0
          106.95838,-6.68767,0
          106.95851,-6.68776,0
          106.95968,-6.68847,0
          106.96007,-6.68874,0
          106.96019,-6.68881,0
          106.96032,-6.68895,0
          106.96198,-6.69208,0
          106.962,-6.69213,0
          106.96238,-6.69284,0
          106.96239,-6.69287,0
          106.9626,-6.69324,0
          106.96291,-6.69361,0
          106.963,-6.6937,0
          106.96323,-6.69388,0
          106.96332,-6.69394,0
          106.96353,-6.69404,0
          106.96361,-6.69407,0
          106.96403,-6.69418,0
          106.96511,-6.69442,0
          106.96551,-6.69448,0
          106.96561,-6.69448,0
          106.96568,-6.69449,0
          106.96579,-6.69448,0
          106.96591,-6.69448,0
          106.96596,-6.69447,0
          106.96599,-6.69447,0
          106.96623,-6.69443,0
          106.96624,-6.69442,0
          106.96636,-6.69439,0
          106.96664,-6.69426,0
          106.96699,-6.69412,0
          106.96701,-6.69412,0
          106.96708,-6.6941,0
          106.96736,-6.6941,0
          106.96795,-6.69418,0
          106.96825,-6.69425,0
          106.96832,-6.69426,0
          106.96845,-6.6943,0
          106.9686,-6.69436,0
          106.96882,-6.69449,0
          106.96906,-6.69439,0
          106.9692,-6.69436,0
          106.96934,-6.69436,0
          106.96941,-6.69438,0
          106.96995,-6.695,0
          106.97014,-6.69516,0
          106.97031,-6.69526,0
          106.97093,-6.69556,0
          106.97136,-6.69569,0
          106.97243,-6.69597,0
          106.9728,-6.69609,0
          106.97286,-6.6961,0
          106.97288,-6.6961,0
          106.9729,-6.69611,0
          106.97293,-6.69611,0
          106.97369,-6.69643,0
          106.97429,-6.69671,0
          106.97526,-6.69722,0
          106.9754,-6.69727,0
          106.97559,-6.69739,0
          106.97566,-6.69746,0
          106.9758,-6.69754,0
          106.97588,-6.69762,0
          106.97593,-6.69765,0
          106.97598,-6.69769,0
          106.97611,-6.69775,0
          106.9763,-6.69781,0
          106.97637,-6.69781,0
          106.97647,-6.69777,0
          106.97668,-6.69759,0
          106.97675,-6.69752,0
          106.97676,-6.6975,0
          106.97677,-6.6975,0
          106.97686,-6.69738,0
          106.97689,-6.69735,0
          106.97691,-6.69734,0
          106.97693,-6.69732,0
          106.97695,-6.69731,0
          106.97702,-6.69729,0
          106.97713,-6.69729,0
          106.97718,-6.6973,0
          106.9772,-6.69731,0
          106.97736,-6.69731,0
          106.97739,-6.6973,0
          106.97756,-6.69727,0
          106.97757,-6.69726,0
          106.97791,-6.69717,0
          106.978,-6.69712,0
          106.97802,-6.6971,0
          106.97805,-6.69704,0
          106.97805,-6.69697,0
          106.97804,-6.69687,0
          106.97804,-6.69674,0
          106.97806,-6.6967,0
          106.97806,-6.69669,0
          106.97807,-6.69669,0
          106.97808,-6.69667,0
          106.9781,-6.69665,0
          106.97817,-6.69665,0
          106.97838,-6.69674,0
          106.97839,-6.69674,0
          106.9784,-6.69675,0
          106.97842,-6.69675,0
          106.97844,-6.69676,0
          106.97847,-6.69676,0
          106.97872,-6.69684,0
          106.97878,-6.69689,0
          106.9788,-6.6969,0
          106.97884,-6.69697,0
          106.97885,-6.697,0
          106.97887,-6.69712,0
          106.97887,-6.69719,0
          106.97888,-6.69722,0
          106.97888,-6.69725,0
          106.97893,-6.69741,0
          106.97901,-6.69754,0
          106.97906,-6.69759,0
          106.97909,-6.69761,0
          106.97912,-6.69762,0
          106.97914,-6.69764,0
          106.97917,-6.69764,0
          106.9792,-6.69765,0
          106.97939,-6.69768,0
          106.97943,-6.69768,0
          106.97958,-6.69772,0
          106.97978,-6.69783,0
          106.9799,-6.69792,0
          106.97992,-6.69795,0
          106.97998,-6.698,0
          106.98002,-6.69802,0
          106.98004,-6.69802,0
          106.98009,-6.69804,0
          106.98057,-6.69803,0
          106.98062,-6.69802,0
          106.98073,-6.69802,0
          106.98147,-6.69796,0
          106.98152,-6.69795,0
          106.98206,-6.69791,0
          106.98216,-6.69791,0
          106.98219,-6.6979,0
          106.9831,-6.69784,0
          106.98431,-6.69782,0
          106.98438,-6.69781,0
          106.98441,-6.6978,0
          106.98454,-6.69778,0
          106.98476,-6.69771,0
          106.98508,-6.69764,0
          106.98513,-6.69764,0
          106.98521,-6.69768,0
          106.98525,-6.69771,0
          106.98533,-6.69763,0
          106.98534,-6.69761,0
          106.98535,-6.6976,0
          106.98543,-6.6976,0
          106.98556,-6.69762,0
          106.98557,-6.69763,0
          106.98565,-6.69765,0
          106.98566,-6.69765,0
          106.98568,-6.69766,0
          106.9857,-6.69766,0
          106.98577,-6.69764,0
          106.98584,-6.69763,0
          106.98585,-6.69762,0
          106.98592,-6.69762,0
          106.98595,-6.69763,0
          106.98597,-6.69762,0
          106.98604,-6.6976,0
          106.98606,-6.6976,0
          106.98608,-6.69759,0
          106.9861,-6.69759,0
          106.98613,-6.6976,0
          106.9862,-6.69761,0
          106.98627,-6.69761,0
          106.98635,-6.69757,0
          106.98639,-6.69757,0
          106.98641,-6.69758,0
          106.98651,-6.69767,0
          106.98652,-6.69769,0
          106.98652,-6.6977,0
          106.98656,-6.69774,0
          106.98657,-6.69774,0
          106.9867,-6.69782,0
          106.98675,-6.69782,0
          106.98679,-6.69781,0
          106.98692,-6.69791,0
          106.98694,-6.69793,0
          106.98709,-6.69802,0
          106.9871,-6.69803,0
          106.98724,-6.69811,0
          106.98752,-6.6983,0
          106.98764,-6.69848,0
          106.98759,-6.69853,0
          106.98753,-6.69857,0
          106.98717,-6.69869,0
          106.98721,-6.69876,0
          106.98721,-6.6988,0
          106.9872,-6.69881,0
          106.98719,-6.69885,0
          106.98717,-6.69888,0
          106.98716,-6.69891,0
          106.98716,-6.69894,0
          106.98718,-6.699,0
          106.9872,-6.69902,0
          106.98721,-6.69904,0
          106.98729,-6.6991,0
        </coordinates>
      </LineString>
    </Placemark>
    <Placemark>
      <name>1. Persiapan Titik Kumpul </name>
      <styleUrl>#icon-1899-DB4436-nodesc</styleUrl>
      <Point>
        <coordinates>
          106.8000805,-6.2356064,0
        </coordinates>
      </Point>
    </Placemark>
    <Placemark>
      <name>AEON Mall Tanjung Barat, Jalan Raya Tanjung Barat, RT.12/RW.4, West Tanjung, South Jakarta City, Jakarta</name>
      <styleUrl>#icon-1899-DB4436-nodesc</styleUrl>
      <Point>
        <coordinates>
          106.8405206,-6.3066504,0
        </coordinates>
      </Point>
    </Placemark>
    <Placemark>
      <name>2. SPBU BP GDC (Grand Depok City)</name>
      <styleUrl>#icon-1899-DB4436-nodesc</styleUrl>
      <Point>
        <coordinates>
          106.817698,-6.4106334,0
        </coordinates>
      </Point>
    </Placemark>
    <Placemark>
      <name>4. SPBU BP Sentul</name>
      <styleUrl>#icon-1899-DB4436-nodesc</styleUrl>
      <Point>
        <coordinates>
          106.8387343,-6.520037,0
        </coordinates>
      </Point>
    </Placemark>
    <Placemark>
      <name>Bendungan Ciawi, Jalan Panatraco, RT.2/RW.6, Cipayung Datar, Bogor Regency, West Java</name>
      <styleUrl>#icon-1899-DB4436-nodesc</styleUrl>
      <Point>
        <coordinates>
          106.8818377,-6.6568715,0
        </coordinates>
      </Point>
    </Placemark>
    <Placemark>
      <name><![CDATA[Masjid Atta'Awun, Jalan Raya Puncak - Gadog, South Tugu, Bogor Regency, West Java]]></name>
      <styleUrl>#icon-1899-DB4436-nodesc</styleUrl>
      <Point>
        <coordinates>
          106.9872901,-6.6990973,0
        </coordinates>
      </Point>
    </Placemark>
  </Document>
</kml>
